CCSDS_OMM_VERS = 2.0
CREATION_DATE  = 
ORIGINATOR     = 

OBJECT_NAME    = DRAGONFLY
OBJECT_ID      = 1998-067XH
CENTER_NAME    = EARTH
REF_FRAME      = TEME
TIME_SYSTEM    = UTC
MEAN_ELEMENT_THEORY = SGP/SGP4

EPOCH          = 2026-01-20T23:38:32.535456
MEAN_MOTION    = 15.96188389
ECCENTRICITY   = .00078084
INCLINATION    = 51.6162
RA_OF_ASC_NODE = 291.9962
ARG_OF_PERICENTER = 156.6249
MEAN_ANOMALY   = 203.5115

EPHEMERIS_TYPE = 0
CLASSIFICATION_TYPE = U
NORAD_CAT_ID   = 65729
ELEMENT_SET_NO = 999
REV_AT_EPOCH   = 1937
BSTAR          = .23710214E-2
MEAN_MOTION_DOT = .1003264E-1
MEAN_MOTION_DDOT = .47353721E-3

CCSDS_OMM_VERS = 2.0
CREATION_DATE  = 
ORIGINATOR     = 

OBJECT_NAME    = 1998-067XK
OBJECT_ID      = 1998-067XK
CENTER_NAME    = EARTH
REF_FRAME      = TEME
TIME_SYSTEM    = UTC
MEAN_ELEMENT_THEORY = SGP/SGP4

EPOCH          = 2026-01-20T11:49:44.113152
MEAN_MOTION    = 15.75542444
ECCENTRICITY   = .00045715
INCLINATION    = 51.6270
RA_OF_ASC_NODE = 299.3056
ARG_OF_PERICENTER = 116.2117
MEAN_ANOMALY   = 243.9353

EPHEMERIS_TYPE = 0
CLASSIFICATION_TYPE = U
NORAD_CAT_ID   = 65731
ELEMENT_SET_NO = 999
REV_AT_EPOCH   = 1923
BSTAR          = .131914E-2
MEAN_MOTION_DOT = .209859E-2
MEAN_MOTION_DDOT = 0

CCSDS_OMM_VERS = 2.0
CREATION_DATE  = 
ORIGINATOR     = 

OBJECT_NAME    = RSP-03
OBJECT_ID      = 1998-067XL
CENTER_NAME    = EARTH
REF_FRAME      = TEME
TIME_SYSTEM    = UTC
MEAN_ELEMENT_THEORY = SGP/SGP4

EPOCH          = 2026-01-21T10:56:38.421600
MEAN_MOTION    = 15.83972290
ECCENTRICITY   = .0005569
INCLINATION    = 51.6228
RA_OF_ASC_NODE = 292.1968
ARG_OF_PERICENTER = 136.8059
MEAN_ANOMALY   = 223.3382

EPHEMERIS_TYPE = 0
CLASSIFICATION_TYPE = U
NORAD_CAT_ID   = 65732
ELEMENT_SET_NO = 999
REV_AT_EPOCH   = 1942
BSTAR          = .14975E-2
MEAN_MOTION_DOT = .356182E-2
MEAN_MOTION_DDOT = 0

CCSDS_OMM_VERS = 2.0
CREATION_DATE  = 
ORIGINATOR     = 

OBJECT_NAME    = GHS-01
OBJECT_ID      = 1998-067XM
CENTER_NAME    = EARTH
REF_FRAME      = TEME
TIME_SYSTEM    = UTC
MEAN_ELEMENT_THEORY = SGP/SGP4

EPOCH          = 2026-01-20T04:28:50.636352
MEAN_MOTION    = 16.21603071
ECCENTRICITY   = .00067392
INCLINATION    = 51.6157
RA_OF_ASC_NODE = 293.3797
ARG_OF_PERICENTER = 190.3013
MEAN_ANOMALY   = 169.7869

EPHEMERIS_TYPE = 0
CLASSIFICATION_TYPE = U
NORAD_CAT_ID   = 65733
ELEMENT_SET_NO = 999
REV_AT_EPOCH   = 1929
BSTAR          = .21629537E-2
MEAN_MOTION_DOT = .4911934E-1
MEAN_MOTION_DDOT = .11854743E-4

CCSDS_OMM_VERS = 2.0
CREATION_DATE  = 
ORIGINATOR     = 

OBJECT_NAME    = YOTSUBA-KULOVER
OBJECT_ID      = 1998-067XN
CENTER_NAME    = EARTH
REF_FRAME      = TEME
TIME_SYSTEM    = UTC
MEAN_ELEMENT_THEORY = SGP/SGP4

EPOCH          = 2026-01-20T00:35:13.186752
MEAN_MOTION    = 15.65739151
ECCENTRICITY   = .00043261
INCLINATION    = 51.6285
RA_OF_ASC_NODE = 306.6936
ARG_OF_PERICENTER = 132.7917
MEAN_ANOMALY   = 227.3443

EPHEMERIS_TYPE = 0
CLASSIFICATION_TYPE = U
NORAD_CAT_ID   = 65941
ELEMENT_SET_NO = 999
REV_AT_EPOCH   = 1584
BSTAR          = .12199895E-2
MEAN_MOTION_DOT = .127352E-2
MEAN_MOTION_DDOT = 0

CCSDS_OMM_VERS = 2.0
CREATION_DATE  = 
ORIGINATOR     = 

OBJECT_NAME    = BOTAN
OBJECT_ID      = 1998-067XP
CENTER_NAME    = EARTH
REF_FRAME      = TEME
TIME_SYSTEM    = UTC
MEAN_ELEMENT_THEORY = SGP/SGP4

EPOCH          = 2026-01-20T18:58:12.324288
MEAN_MOTION    = 15.74034708
ECCENTRICITY   = .00044213
INCLINATION    = 51.6250
RA_OF_ASC_NODE = 300.5428
ARG_OF_PERICENTER = 137.0348
MEAN_ANOMALY   = 223.0997

EPHEMERIS_TYPE = 0
CLASSIFICATION_TYPE = U
NORAD_CAT_ID   = 65942
ELEMENT_SET_NO = 999
REV_AT_EPOCH   = 1599
BSTAR          = .25470801E-2
MEAN_MOTION_DOT = .388238E-2
MEAN_MOTION_DDOT = 0

CCSDS_OMM_VERS = 2.0
CREATION_DATE  = 
ORIGINATOR     = 

OBJECT_NAME    = E-KAGAKU-1
OBJECT_ID      = 1998-067XQ
CENTER_NAME    = EARTH
REF_FRAME      = TEME
TIME_SYSTEM    = UTC
MEAN_ELEMENT_THEORY = SGP/SGP4

EPOCH          = 2026-01-20T23:33:37.069920
MEAN_MOTION    = 15.66123068
ECCENTRICITY   = .00030013
INCLINATION    = 51.6295
RA_OF_ASC_NODE = 301.8431
ARG_OF_PERICENTER = 142.8515
MEAN_ANOMALY   = 217.2689

EPHEMERIS_TYPE = 0
CLASSIFICATION_TYPE = U
NORAD_CAT_ID   = 65943
ELEMENT_SET_NO = 999
REV_AT_EPOCH   = 1599
BSTAR          = .12768434E-2
MEAN_MOTION_DOT = .135496E-2
MEAN_MOTION_DDOT = 0

CCSDS_OMM_VERS = 2.0
CREATION_DATE  = 
ORIGINATOR     = 

OBJECT_NAME    = HRC MONOBLOCK CAMERA
OBJECT_ID      = 1998-067XR
CENTER_NAME    = EARTH
REF_FRAME      = TEME
TIME_SYSTEM    = UTC
MEAN_ELEMENT_THEORY = SGP/SGP4

EPOCH          = 2026-01-20T23:11:38.705280
MEAN_MOTION    = 15.57242246
ECCENTRICITY   = .00009029
INCLINATION    = 51.6305
RA_OF_ASC_NODE = 305.4859
ARG_OF_PERICENTER = 28.8238
MEAN_ANOMALY   = 331.2804

EPHEMERIS_TYPE = 0
CLASSIFICATION_TYPE = U
NORAD_CAT_ID   = 66052
ELEMENT_SET_NO = 999
REV_AT_EPOCH   = 1494
BSTAR          = .76909064E-3
MEAN_MOTION_DOT = .57027E-3
MEAN_MOTION_DDOT = 0

CCSDS_OMM_VERS = 2.0
CREATION_DATE  = 
ORIGINATOR     = 

OBJECT_NAME    = HTV-X1
OBJECT_ID      = 2025-241A
CENTER_NAME    = EARTH
REF_FRAME      = TEME
TIME_SYSTEM    = UTC
MEAN_ELEMENT_THEORY = SGP/SGP4

EPOCH          = 2026-01-20T21:13:44.691456
MEAN_MOTION    = 15.49488068
ECCENTRICITY   = .00077481
INCLINATION    = 51.6331
RA_OF_ASC_NODE = 308.6863
ARG_OF_PERICENTER = 41.1873
MEAN_ANOMALY   = 318.9699

EPHEMERIS_TYPE = 0
CLASSIFICATION_TYPE = U
NORAD_CAT_ID   = 66174
ELEMENT_SET_NO = 999
REV_AT_EPOCH   = 51
BSTAR          = .42269167E-3
MEAN_MOTION_DOT = .23329E-3
MEAN_MOTION_DDOT = 0

CCSDS_OMM_VERS = 2.0
CREATION_DATE  = 
ORIGINATOR     = 

OBJECT_NAME    = SZ-21 MODULE
OBJECT_ID      = 2025-246C
CENTER_NAME    = EARTH
REF_FRAME      = TEME
TIME_SYSTEM    = UTC
MEAN_ELEMENT_THEORY = SGP/SGP4

EPOCH          = 2026-01-21T09:26:38.566752
MEAN_MOTION    = 15.64963547
ECCENTRICITY   = .0002938
INCLINATION    = 41.4762
RA_OF_ASC_NODE = 133.7187
ARG_OF_PERICENTER = 215.6118
MEAN_ANOMALY   = 144.4526

EPHEMERIS_TYPE = 0
CLASSIFICATION_TYPE = U
NORAD_CAT_ID   = 66515
ELEMENT_SET_NO = 999
REV_AT_EPOCH   = 1065
BSTAR          = .45441E-3
MEAN_MOTION_DOT = .458E-3
MEAN_MOTION_DDOT = 0

CCSDS_OMM_VERS = 2.0
CREATION_DATE  = 
ORIGINATOR     = 

OBJECT_NAME    = SHENZHOU-22
OBJECT_ID      = 2025-272A
CENTER_NAME    = EARTH
REF_FRAME      = TEME
TIME_SYSTEM    = UTC
MEAN_ELEMENT_THEORY = SGP/SGP4

EPOCH          = 2026-01-20T16:51:58.790592
MEAN_MOTION    = 15.60783355
ECCENTRICITY   = .0010813
INCLINATION    = 41.4671
RA_OF_ASC_NODE = 139.8756
ARG_OF_PERICENTER = 324.6098
MEAN_ANOMALY   = 35.4022

EPHEMERIS_TYPE = 0
CLASSIFICATION_TYPE = U
NORAD_CAT_ID   = 66645
ELEMENT_SET_NO = 999
REV_AT_EPOCH   = 26764
BSTAR          = .45544102E-3
MEAN_MOTION_DOT = .38992E-3
MEAN_MOTION_DDOT = 0

CCSDS_OMM_VERS = 2.0
CREATION_DATE  = 
ORIGINATOR     = 

OBJECT_NAME    = SOYUZ-MS 28
OBJECT_ID      = 2025-275A
CENTER_NAME    = EARTH
REF_FRAME      = TEME
TIME_SYSTEM    = UTC
MEAN_ELEMENT_THEORY = SGP/SGP4

EPOCH          = 2026-01-21T06:30:58.451904
MEAN_MOTION    = 15.49511068
ECCENTRICITY   = .0007779
INCLINATION    = 51.6330
RA_OF_ASC_NODE = 306.7706
ARG_OF_PERICENTER = 41.9176
MEAN_ANOMALY   = 318.2407

EPHEMERIS_TYPE = 0
CLASSIFICATION_TYPE = U
NORAD_CAT_ID   = 66664
ELEMENT_SET_NO = 999
REV_AT_EPOCH   = 54898
BSTAR          = .37939E-3
MEAN_MOTION_DOT = .20903E-3
MEAN_MOTION_DDOT = 0

